GOES 19                 
1 60133U 24119A   26064.28306403 -.00000257  00000+0  00000+0 0  9997
2 60133   0.0131 338.9704 0001059  46.7096 164.0397  1.00271818  5925
FENGYUN 3H              
1 65815U 25219A   26064.24489415  .00000150  00000+0  90785-4 0  9997
2 65815  98.6681   7.0853 0001375  64.4312 295.7006 14.19931311 22639
