[{"OBJECT_NAME":"GOES 19","OBJECT_ID":"2024-119A","EPOCH":"2026-03-05T06:47:36.732192","MEAN_MOTION":1.00271818,"ECCENTRICITY":0.00010599,"INCLINATION":0.0131,"RA_OF_ASC_NODE":338.9704,"ARG_OF_PERICENTER":46.7096,"MEAN_ANOMALY":164.0397,"EPHEMERIS_TYPE":0,"CLASSIFICATION_TYPE":"U","NORAD_CAT_ID":60133,"ELEMENT_SET_NO":999,"REV_AT_EPOCH":592,"BSTAR":0,"MEAN_MOTION_DOT":-2.57e-6,"MEAN_MOTION_DDOT":0},{"OBJECT_NAME":"FENGYUN 3H","OBJECT_ID":"2025-219A","EPOCH":"2026-03-05T05:52:38.854560","MEAN_MOTION":14.19931311,"ECCENTRICITY":0.00013759,"INCLINATION":98.6681,"RA_OF_ASC_NODE":7.0853,"ARG_OF_PERICENTER":64.4312,"MEAN_ANOMALY":295.7006,"EPHEMERIS_TYPE":0,"CLASSIFICATION_TYPE":"U","NORAD_CAT_ID":65815,"ELEMENT_SET_NO":999,"REV_AT_EPOCH":2263,"BSTAR":9.0784516e-5,"MEAN_MOTION_DOT":1.5e-6,"MEAN_MOTION_DDOT":0}]
